CELESTIS-17 & SHERPA-FX1
1 47486U 21006CB  26068.64311433  .00007207  00000+0  24301-3 0  9993
2 47486  97.2397 112.1052 0006630 178.1385 181.9882 15.30994801284065
STARLINK-35634          
1 66173U 25240AD  26068.38146736  .00033409  00000+0  11352-2 0  9998
2 66173  53.1608  64.0604 0001420  67.6552 292.4599 15.30195218 21947
